NORAD_CAT_ID,OBJECT_NAME,OBJECT_TYPE,EPOCH,MEAN_MOTION,ECCENTRICITY,INCLINATION,RA_OF_ASC_NODE,ARG_OF_PERICENTER,MEAN_ANOMALY,BSTAR,MEAN_MOTION_DOT,MEAN_MOTION_DDOT,TLE_LINE0,TLE_LINE1,TLE_LINE2,SEMIMAJOR_AXIS,PERIOD,APOGEE,PERIGEE,DECAYED
49420.0,STARLINK-3110,PAYLOAD,2023-11-09 02:50:41,15.08852244,0.0001536,53.2159,91.9713,79.9702,280.1464,0.0011344,0.00017818,0.0,0 STARLINK-3110,1 49420U 21104N   23313.11853411  .00017818  00000-0  11344-2 0  9993,2 49420  53.2159  91.9713 0001536  79.9702 280.1464 15.08852244111169,6917.843,95.437,540.771,538.645,0.0
49420.0,STARLINK-3110,PAYLOAD,2023-11-09 13:58:23,15.08855299,0.0001711,53.2164,89.8904,80.7041,279.4145,0.00071807,0.00011163,0.0,0 STARLINK-3110,1 49420U 21104N   23313.58221220  .00011163  00000-0  71807-3 0  9999,2 49420  53.2164  89.8904 0001711  80.7041 279.4145 15.08855299110130,6917.834,95.437,540.882,538.515,0.0
49420.0,STARLINK-3110,PAYLOAD,2023-11-09 15:33:46,15.0885727,0.0001727,53.2166,89.5934,79.7069,280.4118,0.00074743,0.00011633,0.0,0 STARLINK-3110,1 49420U 21104N   23313.64845149  .00011633  00000-0  74743-3 0  9992,2 49420  53.2166  89.5934 0001727  79.7069 280.4118 15.08857270111243,6917.828,95.436,540.887,538.498,0.0
49420.0,STARLINK-3110,PAYLOAD,2023-11-10 12:13:46,15.08846836,0.0001432,53.217,85.7272,74.2714,285.8436,0.0002738,4.073e-05,0.0,0 STARLINK-3110,1 49420U 21104N   23314.50957032  .00004073  00000-0  27380-3 0  9998,2 49420  53.2170  85.7272 0001432  74.2714 285.8436 15.08846836111373,6917.859,95.437,540.715,538.734,0.0
49420.0,STARLINK-3110,PAYLOAD,2023-11-10 15:24:33,15.0884719,0.0001442,53.215,85.1311,86.2562,273.8595,0.00020229,2.934e-05,0.0,0 STARLINK-3110,1 49420U 21104N   23314.64204927  .00002934  00000-0  20229-3 0  9990,2 49420  53.2150  85.1311 0001442  86.2562 273.8595 15.08847190110291,6917.858,95.437,540.721,538.726,0.0
49420.0,STARLINK-3110,PAYLOAD,2023-11-11 12:04:33,15.08843691,0.0001388,53.2158,81.2644,88.8493,271.2658,0.00012572,1.714e-05,0.0,0 STARLINK-3110,1 49420U 21104N   23315.50316945  .00001714  00000-0  12572-3 0  9997,2 49420  53.2158  81.2644 0001388  88.8493 271.2658 15.08843691111537,6917.869,95.437,540.694,538.774,0.0
49420.0,STARLINK-3110,PAYLOAD,2023-11-11 13:39:56,15.08844969,0.0001411,53.216,80.9672,89.351,270.7644,0.00011144,1.486e-05,0.0,0 STARLINK-3110,1 49420U 21104N   23315.56940900  .00001486  00000-0  11144-3 0  9997,2 49420  53.2160  80.9672 0001411  89.3510 270.7644 15.08844969110436,6917.865,95.437,540.706,538.754,0.0
49420.0,STARLINK-3110,PAYLOAD,2023-11-11 18:26:06,15.08847867,0.0001382,53.2161,80.074,93.3527,266.7624,0.00014812,2.071e-05,0.0,0 STARLINK-3110,1 49420U 21104N   23315.76812699  .00002071  00000-0  14812-3 0  9998,2 49420  53.2161  80.0740 0001382  93.3527 266.7624 15.08847867110460,6917.856,95.437,540.677,538.765,0.0
49420.0,STARLINK-3110,PAYLOAD,2023-11-12 11:55:20,15.08840658,0.0001315,53.2165,76.804,91.125,268.9893,8.1118e-05,1.003e-05,0.0,0 STARLINK-3110,1 49420U 21104N   23316.49677056  .00001003  00000-0  81118-4 0  9993,2 49420  53.2165  76.8040 0001315  91.1250 268.9893 15.08840658111683,6917.878,95.438,540.653,538.834,0.0
49420.0,STARLINK-3110,PAYLOAD,2023-11-12 13:30:44,15.08841426,0.0001356,53.217,76.5044,91.8719,268.2428,6.4631e-05,7.41e-06,0.0,0 STARLINK-3110,1 49420U 21104N   23316.56300995  .00000741  00000-0  64631-4 0  9995,2 49420  53.2170  76.5044 0001356  91.8719 268.2428 15.08841426110581,6917.876,95.437,540.679,538.803,0.0
49420.0,STARLINK-3110,PAYLOAD,2023-11-12 15:06:07,15.08844157,0.0001293,53.2164,76.2094,80.7215,279.3924,0.00013028,1.786e-05,0.0,0 STARLINK-3110,1 49420U 21104N   23316.62924887  .00001786  00000-0  13028-3 0  9997,2 49420  53.2164  76.2094 0001293  80.7215 279.3924 15.08844157110593,6917.868,95.437,540.627,538.838,0.0
49420.0,STARLINK-3110,PAYLOAD,2023-11-13 14:56:53,15.08859607,0.0001251,53.2158,71.7499,84.2141,275.8993,0.00019015,2.741e-05,0.0,0 STARLINK-3110,1 49420U 21104N   23317.62283786  .00002741  00000-0  19015-3 0  9998,2 49420  53.2158  71.7499 0001251  84.2141 275.8993 15.08859607110746,6917.82,95.436,540.551,538.82,0.0
49420.0,STARLINK-3110,PAYLOAD,2023-11-14 00:29:12,15.08848232,8.94e-05,53.2161,69.9669,78.9954,281.1138,0.00013795,1.909e-05,0.0,0 STARLINK-3110,1 49420U 21104N   23318.02028160  .00001909  00000-0  13795-3 0  9990,2 49420  53.2161  69.9669 0000894  78.9954 281.1138 15.08848232111915,6917.855,95.437,540.339,539.102,0.0
49420.0,STARLINK-3110,PAYLOAD,2023-11-14 11:36:55,15.08818594,0.0001971,53.2187,67.884,89.2792,270.8426,0.00046911,7.181e-05,0.0,0 STARLINK-3110,1 49420U 21104N   23318.48397882  .00007181  00000-0  46911-3 0  9994,2 49420  53.2187  67.8840 0001971  89.2792 270.8426 15.08818594111983,6917.946,95.439,541.174,538.447,0.0
49420.0,STARLINK-3110,PAYLOAD,2023-11-14 13:12:20,15.08791119,0.0001944,53.2195,67.5877,83.7726,276.3488,0.0011316,0.00017743,0.0,0 STARLINK-3110,1 49420U 21104N   23318.55023536  .00017743  00000-0  11316-2 0  9999,2 49420  53.2195  67.5877 0001944  83.7726 276.3488 15.08791119110885,6918.03,95.441,541.24,538.55,0.0
49420.0,STARLINK-3110,PAYLOAD,2023-11-14 16:23:04,15.08834119,0.0001475,53.2169,66.9919,93.0833,267.0328,-7.015e-05,-1.404e-05,0.0,0 STARLINK-3110,1 49420U 21104N   23318.68269237 -.00001404  00000-0 -70150-4 0  9995,2 49420  53.2169  66.9919 0001475  93.0833 267.0328 15.08834119112013,6917.898,95.438,540.784,538.743,0.0
49420.0,STARLINK-3110,PAYLOAD,2023-11-15 11:27:42,15.0884211,0.0001298,53.2165,63.4243,96.014,264.1,0.00010912,1.449e-05,0.0,0 STARLINK-3110,1 49420U 21104N   23319.47756947  .00001449  00000-0  10912-3 0  9998,2 49420  53.2165  63.4243 0001298  96.0140 264.1000 15.08842110112136,6917.874,95.437,540.637,538.841,0.0
49420.0,STARLINK-3110,PAYLOAD,2023-11-15 13:03:05,15.08844651,0.0001292,53.2167,63.127,95.761,264.353,0.00018436,2.648e-05,0.0,0 STARLINK-3110,1 49420U 21104N   23319.54380907  .00002648  00000-0  18436-3 0  9996,2 49420  53.2167  63.1270 0001292  95.7610 264.3530 15.08844651111037,6917.866,95.437,540.625,538.837,0.0
49420.0,STARLINK-3110,PAYLOAD,2023-11-16 06:32:20,15.08838329,0.0001289,53.216,59.8577,87.3107,272.8033,0.00022069,3.226e-05,0.0,0 STARLINK-3110,1 49420U 21104N   23320.27245467  .00003226  00000-0  22069-3 0  9999,2 49420  53.2160  59.8577 0001289  87.3107 272.8033 15.08838329112258,6917.885,95.438,540.642,538.859,0.0
49420.0,STARLINK-3110,PAYLOAD,2023-11-16 16:04:38,15.08840527,0.0001276,53.216,58.0746,81.7142,278.3994,0.00016088,2.273e-05,0.0,0 STARLINK-3110,1 49420U 21104N   23320.66989416  .00002273  00000-0  16088-3 0  9996,2 49420  53.2160  58.0746 0001276  81.7142 278.3994 15.08840527111204,6917.879,95.438,540.626,538.861,0.0
49420.0,STARLINK-3110,PAYLOAD,2023-11-17 12:44:39,15.08844017,0.0001699,53.2173,54.2066,91.7636,268.3551,8.5492e-05,1.073e-05,0.0,0 STARLINK-3110,1 49420U 21104N   23321.53101464  .00001073  00000-0  85492-4 0  9995,2 49420  53.2173  54.2066 0001699  91.7636 268.3551 15.08844017112442,6917.868,95.437,540.908,538.558,0.0
49420.0,STARLINK-3110,PAYLOAD,2023-11-18 12:35:26,15.08841193,0.0001544,53.218,49.7464,94.5547,265.5622,0.00016977,2.415e-05,0.0,0 STARLINK-3110,1 49420U 21104N   23322.52461712  .00002415  00000-0  16977-3 0  9992,2 49420  53.2180  49.7464 0001544  94.5547 265.5622 15.08841193112598,6917.877,95.437,540.81,538.674,0.0
49420.0,STARLINK-3110,PAYLOAD,2023-11-18 15:46:12,15.08845937,0.0001447,53.2184,49.1508,97.8222,262.2934,8.9981e-05,1.145e-05,0.0,0 STARLINK-3110,1 49420U 21104N   23322.65709338  .00001145  00000-0  89981-4 0  9990,2 49420  53.2184  49.1508 0001447  97.8222 262.2934 15.08845937111503,6917.862,95.437,540.728,538.726,0.0
49420.0,STARLINK-3110,PAYLOAD,2023-11-19 12:26:13,15.08842933,0.0001475,53.2189,45.2857,95.1363,264.9798,8.4763e-05,1.061e-05,0.0,0 STARLINK-3110,1 49420U 21104N   23323.51821601  .00001061  00000-0  84763-4 0  9994,2 49420  53.2189  45.2857 0001475  95.1363 264.9798 15.08842933111634,6917.871,95.437,540.757,538.716,0.0
49420.0,STARLINK-3110,PAYLOAD,2023-11-20 09:06:14,15.08842923,0.0001431,53.2191,41.4206,94.0945,266.0211,0.00011341,1.518e-05,0.0,0 STARLINK-3110,1 49420U 21104N   23324.37933562  .00001518  00000-0  11341-3 0  9997,2 49420  53.2191  41.4206 0001431  94.0945 266.0211 15.08842923112878,6917.871,95.437,540.726,538.747,0.0
49420.0,STARLINK-3110,PAYLOAD,2023-11-20 12:17:00,15.08847888,0.0001445,53.2191,40.8259,93.1335,266.9823,0.00012424,1.69e-05,0.0,0 STARLINK-3110,1 49420U 21104N   23324.51181244  .00001690  00000-0  12424-3 0  9999,2 49420  53.2191  40.8259 0001445  93.1335 266.9823 15.08847888111789,6917.856,95.437,540.721,538.722,0.0
49420.0,STARLINK-3110,PAYLOAD,2023-11-20 13:52:23,15.08849663,0.0001456,53.2191,40.5274,92.9129,267.203,0.00014544,2.028e-05,0.0,0 STARLINK-3110,1 49420U 21104N   23324.57805093  .00002028  00000-0  14544-3 0  9991,2 49420  53.2191  40.5274 0001456  92.9129 267.2030 15.08849663111791,6917.851,95.437,540.723,538.709,0.0
49420.0,STARLINK-3110,PAYLOAD,2023-11-21 12:07:47,15.08842865,0.0001289,53.2184,36.3661,88.0868,272.0272,9.6136e-05,1.243e-05,0.0,0 STARLINK-3110,1 49420U 21104N   23325.50541653  .00001243  00000-0  96136-4 0  9990,2 49420  53.2184  36.3661 0001289  88.0868 272.0272 15.08842865113045,6917.872,95.437,540.628,538.845,0.0
49420.0,STARLINK-3110,PAYLOAD,2023-11-22 11:58:34,15.08855629,0.0001382,53.2183,31.9064,88.7579,271.3572,0.0002214,3.239e-05,0.0,0 STARLINK-3110,1 49420U 21104N   23326.49900860  .00003239  00000-0  22140-3 0  9998,2 49420  53.2183  31.9064 0001382  88.7579 271.3572 15.08855629112082,6917.833,95.437,540.654,538.742,0.0
49420.0,STARLINK-3110,PAYLOAD,2023-11-23 11:49:21,15.08832075,0.0001358,53.2179,27.4427,75.9462,284.1682,0.00060603,9.368e-05,0.0,0 STARLINK-3110,1 49420U 21104N   23327.49261489  .00009368  00000-0  60603-3 0  9991,2 49420  53.2179  27.4427 0001358  75.9462 284.1682 15.08832075113346,6917.905,95.438,540.709,538.83,0.0
